$GPRMC,160012.00,A,3606.2180027,N,14005.1790750,E,0.02,0.00,270819,0.0,E,D*33
$GPGGA,160012.00,3606.2180027,N,14005.1790750,E,5,11,1.1,31.818,M,38.037,M,0.0,*7E
$GPRMC,160042.00,A,3606.2180224,N,14005.1790886,E,0.03,0.00,270819,0.0,E,D*32
$GPGGA,160042.00,3606.2180224,N,14005.1790886,E,5,09,1.1,31.719,M,38.037,M,0.0,*79
$GPRMC,160112.00,A,3606.2180266,N,14005.1791394,E,0.04,0.00,270819,0.0,E,D*3E
$GPGGA,160112.00,3606.2180266,N,14005.1791394,E,5,07,1.1,31.734,M,38.037,M,0.0,*73
$GPRMC,160142.00,A,3606.2180124,N,14005.1790585,E,0.05,0.00,270819,0.0,E,D*38
$GPGGA,160142.00,3606.2180124,N,14005.1790585,E,5,09,1.1,31.668,M,38.037,M,0.0,*72
$GPRMC,160212.00,A,3606.2180142,N,14005.1790695,E,0.02,0.00,270819,0.0,E,D*3B
$GPGGA,160212.00,3606.2180142,N,14005.1790695,E,5,09,1.1,31.715,M,38.037,M,0.0,*7D
$GPRMC,160242.00,A,3606.2180131,N,14005.1790914,E,0.05,0.00,270819,0.0,E,D*3B
$GPGGA,160242.00,3606.2180131,N,14005.1790914,E,5,10,1.1,31.711,M,38.037,M,0.0,*76
$GPRMC,160312.00,A,3606.2180195,N,14005.1790921,E,0.05,0.00,270819,0.0,E,D*37
$GPGGA,160312.00,3606.2180195,N,14005.1790921,E,5,06,1.1,31.749,M,38.037,M,0.0,*70
$GPRMC,160342.00,A,3606.2180050,N,14005.1790585,E,0.07,0.00,270819,0.0,E,D*3A
$GPGGA,160342.00,3606.2180050,N,14005.1790585,E,5,07,1.1,31.762,M,38.037,M,0.0,*77
$GPRMC,160412.00,A,3606.2180121,N,14005.1790806,E,0.06,0.00,270819,0.0,E,D*38
$GPGGA,160412.00,3606.2180121,N,14005.1790806,E,5,08,1.1,31.818,M,38.037,M,0.0,*79
$GPRMC,160442.00,A,3606.2179896,N,14005.1790500,E,0.08,0.00,270819,0.0,E,D*3B
$GPGGA,160442.00,3606.2179896,N,14005.1790500,E,5,09,1.1,31.713,M,38.037,M,0.0,*71
$GPRMC,160512.00,A,3606.2179888,N,14005.1790623,E,0.04,0.00,270819,0.0,E,D*3E
$GPGGA,160512.00,3606.2179888,N,14005.1790623,E,5,11,1.1,31.578,M,38.037,M,0.0,*7E
$GPRMC,160542.00,A,3606.2179844,N,14005.1790525,E,0.11,0.00,270819,0.0,E,D*3A
$GPGGA,160542.00,3606.2179844,N,14005.1790525,E,5,09,1.1,31.641,M,38.037,M,0.0,*7E
$GPRMC,160612.00,A,3606.2179881,N,14005.1790552,E,0.04,0.00,270819,0.0,E,D*31
$GPGGA,160612.00,3606.2179881,N,14005.1790552,E,5,11,1.1,31.668,M,38.037,M,0.0,*73
$GPRMC,160642.00,A,3606.2179921,N,14005.1790655,E,0.02,0.00,270819,0.0,E,D*3D
$GPGGA,160642.00,3606.2179921,N,14005.1790655,E,5,07,1.1,31.611,M,38.037,M,0.0,*70
$GPRMC,160712.00,A,3606.2180220,N,14005.1790523,E,0.02,0.00,270819,0.0,E,D*37
$GPGGA,160712.00,3606.2180220,N,14005.1790523,E,5,10,1.1,31.739,M,38.037,M,0.0,*77
$GPRMC,160742.00,A,3606.2180604,N,14005.1791494,E,0.07,0.00,270819,0.0,E,D*39
$GPGGA,160742.00,3606.2180604,N,14005.1791494,E,5,11,1.1,31.930,M,38.037,M,0.0,*7A
$GPRMC,160812.00,A,3606.2180577,N,14005.1791385,E,0.06,0.00,270819,0.0,E,D*32
$GPGGA,160812.00,3606.2180577,N,14005.1791385,E,5,10,1.1,31.991,M,38.037,M,0.0,*7A
$GPRMC,160842.00,A,3606.2177640,N,14005.1791940,E,0.01,0.00,270819,0.0,E,A*39
$GPGGA,160842.00,3606.2177640,N,14005.1791940,E,1,13,1.1,33.908,M,38.037,M,0.0,*76
$GPRMC,160912.00,A,3606.2180928,N,14005.1791119,E,0.06,0.00,270819,0.0,E,D*32
$GPGGA,160912.00,3606.2180928,N,14005.1791119,E,5,11,1.1,31.641,M,38.037,M,0.0,*79
$GPRMC,160942.00,A,3606.2183218,N,14005.1792415,E,0.06,0.00,270819,0.0,E,A*33
$GPGGA,160942.00,3606.2183218,N,14005.1792415,E,1,13,1.1,33.081,M,38.037,M,0.0,*73
$GPRMC,161012.00,A,3606.2180618,N,14005.1791523,E,0.03,0.00,270819,0.0,E,D*3E
$GPGGA,161012.00,3606.2180618,N,14005.1791523,E,5,11,1.1,31.986,M,38.037,M,0.0,*74
$GPRMC,161042.00,A,3606.2180393,N,14005.1791336,E,0.07,0.00,270819,0.0,E,D*3B
$GPGGA,161042.00,3606.2180393,N,14005.1791336,E,5,11,1.1,31.913,M,38.037,M,0.0,*79
$GPRMC,161112.00,A,3606.2180395,N,14005.1791401,E,0.05,0.00,270819,0.0,E,D*38
$GPGGA,161112.00,3606.2180395,N,14005.1791401,E,5,11,1.1,31.851,M,38.037,M,0.0,*7F
$GPRMC,161142.00,A,3606.2180436,N,14005.1791627,E,0.02,0.00,270819,0.0,E,D*32
$GPGGA,161142.00,3606.2180436,N,14005.1791627,E,5,11,1.1,31.853,M,38.037,M,0.0,*70
$GPRMC,161212.00,A,3606.2180429,N,14005.1791363,E,0.07,0.00,270819,0.0,E,D*3A
$GPGGA,161212.00,3606.2180429,N,14005.1791363,E,5,11,1.1,31.783,M,38.037,M,0.0,*7F
$GPRMC,161242.00,A,3606.2180278,N,14005.1791101,E,0.02,0.00,270819,0.0,E,D*3E
$GPGGA,161242.00,3606.2180278,N,14005.1791101,E,4,10,1.1,31.746,M,38.037,M,0.0,*77
$GPRMC,161312.00,A,3606.2180218,N,14005.1791036,E,0.06,0.00,270819,0.0,E,D*3D
$GPGGA,161312.00,3606.2180218,N,14005.1791036,E,4,11,1.1,31.749,M,38.037,M,0.0,*7E
$GPRMC,161342.00,A,3606.2180205,N,14005.1791144,E,0.02,0.00,270819,0.0,E,D*34
$GPGGA,161342.00,3606.2180205,N,14005.1791144,E,4,10,1.1,31.657,M,38.037,M,0.0,*7C
$GPRMC,161412.00,A,3606.2180175,N,14005.1791143,E,0.03,0.00,270819,0.0,E,D*34
$GPGGA,161412.00,3606.2180175,N,14005.1791143,E,4,11,1.0,31.835,M,38.037,M,0.0,*77
$GPRMC,161442.00,A,3606.2179815,N,14005.1789964,E,0.03,0.00,270819,0.0,E,A*39
$GPGGA,161442.00,3606.2179815,N,14005.1789964,E,1,15,1.0,32.925,M,38.037,M,0.0,*7D
$GPRMC,161512.00,A,3606.2181567,N,14005.1790052,E,0.06,0.00,270819,0.0,E,D*36
$GPGGA,161512.00,3606.2181567,N,14005.1790052,E,5,11,1.0,32.056,M,38.037,M,0.0,*7F
$GPRMC,161542.00,A,3606.2181035,N,14005.1791390,E,0.01,0.00,270819,0.0,E,D*3A
$GPGGA,161542.00,3606.2181035,N,14005.1791390,E,5,11,1.0,32.112,M,38.037,M,0.0,*75
$GPRMC,161612.00,A,3606.2180465,N,14005.1791503,E,0.06,0.00,270819,0.0,E,D*37
$GPGGA,161612.00,3606.2180465,N,14005.1791503,E,5,11,1.0,31.980,M,38.037,M,0.0,*7F
$GPRMC,161642.00,A,3606.2180406,N,14005.1791501,E,0.02,0.00,270819,0.0,E,D*31
$GPGGA,161642.00,3606.2180406,N,14005.1791501,E,5,11,1.0,31.884,M,38.037,M,0.0,*78
$GPRMC,161712.00,A,3606.2180643,N,14005.1791381,E,0.04,0.00,270819,0.0,E,D*3E
$GPGGA,161712.00,3606.2180643,N,14005.1791381,E,5,11,1.0,31.762,M,38.037,M,0.0,*76
$GPRMC,161742.00,A,3606.2180527,N,14005.1791180,E,0.01,0.00,270819,0.0,E,D*3C
$GPGGA,161742.00,3606.2180527,N,14005.1791180,E,4,08,1.0,31.494,M,38.037,M,0.0,*72
$GPRMC,161812.00,A,3606.2180049,N,14005.1791193,E,0.03,0.00,270819,0.0,E,D*3B
$GPGGA,161812.00,3606.2180049,N,14005.1791193,E,4,09,1.0,31.798,M,38.037,M,0.0,*79
$GPRMC,161842.00,A,3606.2180031,N,14005.1791251,E,0.02,0.00,270819,0.0,E,D*3D
$GPGGA,161842.00,3606.2180031,N,14005.1791251,E,4,11,1.0,31.770,M,38.037,M,0.0,*71
$GPRMC,161912.00,A,3606.2179945,N,14005.1791275,E,0.01,0.00,270819,0.0,E,D*30
$GPGGA,161912.00,3606.2179945,N,14005.1791275,E,4,11,1.0,31.773,M,38.037,M,0.0,*7C
$GPRMC,161942.00,A,3606.2179146,N,14005.1793304,E,0.09,0.00,270819,0.0,E,A*36
$GPGGA,161942.00,3606.2179146,N,14005.1793304,E,1,16,1.0,34.644,M,38.037,M,0.0,*75
$GPRMC,162012.00,A,3606.2179633,N,14005.1792049,E,0.02,0.00,270819,0.0,E,D*39
$GPGGA,162012.00,3606.2179633,N,14005.1792049,E,5,11,0.9,32.501,M,38.037,M,0.0,*7B
$GPRMC,162042.00,A,3606.2179529,N,14005.1791765,E,0.03,0.00,270819,0.0,E,D*3F
$GPGGA,162042.00,3606.2179529,N,14005.1791765,E,5,08,0.9,32.233,M,38.037,M,0.0,*72
$GPRMC,162112.00,A,3606.2180322,N,14005.1791799,E,0.04,0.00,270819,0.0,E,D*34
$GPGGA,162112.00,3606.2180322,N,14005.1791799,E,5,08,0.9,32.028,M,38.037,M,0.0,*76
$GPRMC,162142.00,A,3606.2180130,N,14005.1791703,E,0.01,0.00,270819,0.0,E,D*36
$GPGGA,162142.00,3606.2180130,N,14005.1791703,E,5,11,0.9,31.975,M,38.037,M,0.0,*7B
$GPRMC,162212.00,A,3606.2180441,N,14005.1791595,E,0.02,0.00,270819,0.0,E,D*3D
$GPGGA,162212.00,3606.2180441,N,14005.1791595,E,5,11,0.9,31.971,M,38.037,M,0.0,*77
$GPRMC,162242.00,A,3606.2180288,N,14005.1791569,E,0.01,0.00,270819,0.0,E,D*3B
$GPGGA,162242.00,3606.2180288,N,14005.1791569,E,5,11,0.9,31.992,M,38.037,M,0.0,*7F
$GPRMC,162312.00,A,3606.2180212,N,14005.1791482,E,0.05,0.00,270819,0.0,E,D*3C
$GPGGA,162312.00,3606.2180212,N,14005.1791482,E,5,11,0.9,31.832,M,38.037,M,0.0,*77
$GPRMC,162342.00,A,3606.2180275,N,14005.1791662,E,0.05,0.00,270819,0.0,E,D*34
$GPGGA,162342.00,3606.2180275,N,14005.1791662,E,5,08,0.9,31.886,M,38.037,M,0.0,*78
$GPRMC,162412.00,A,3606.2180031,N,14005.1791303,E,0.06,0.00,270819,0.0,E,D*35
$GPGGA,162412.00,3606.2180031,N,14005.1791303,E,5,07,0.9,31.948,M,38.037,M,0.0,*76
$GPRMC,162442.00,A,3606.2179868,N,14005.1793856,E,0.02,0.00,270819,0.0,E,A*3A
$GPGGA,162442.00,3606.2179868,N,14005.1793856,E,1,16,0.9,34.535,M,38.037,M,0.0,*7F
$GPRMC,162512.00,A,3606.2180356,N,14005.1791964,E,0.05,0.00,270819,0.0,E,D*3E
$GPGGA,162512.00,3606.2180356,N,14005.1791964,E,5,11,0.9,32.018,M,38.037,M,0.0,*76
$GPRMC,162542.00,A,3606.2180269,N,14005.1790978,E,0.02,0.00,270819,0.0,E,D*3D
$GPGGA,162542.00,3606.2180269,N,14005.1790978,E,5,11,0.9,31.501,M,38.037,M,0.0,*7C
$GPRMC,162612.00,A,3606.2179942,N,14005.1790944,E,0.03,0.00,270819,0.0,E,D*31
$GPGGA,162612.00,3606.2179942,N,14005.1790944,E,5,11,0.9,31.336,M,38.037,M,0.0,*73
$GPRMC,162642.00,A,3606.2180031,N,14005.1790845,E,0.05,0.00,270819,0.0,E,D*39
$GPGGA,162642.00,3606.2180031,N,14005.1790845,E,5,09,0.9,31.377,M,38.037,M,0.0,*71
$GPRMC,162712.00,A,3606.2180054,N,14005.1794041,E,0.03,0.00,270819,0.0,E,A*35
$GPGGA,162712.00,3606.2180054,N,14005.1794041,E,1,17,0.9,31.695,M,38.037,M,0.0,*7C
$GPRMC,162742.00,A,3606.2180256,N,14005.1790974,E,0.02,0.00,270819,0.0,E,D*3F
$GPGGA,162742.00,3606.2180256,N,14005.1790974,E,5,11,0.9,31.043,M,38.037,M,0.0,*7D
$GPRMC,162812.00,A,3606.2179773,N,14005.1791299,E,0.03,0.00,270819,0.0,E,D*39
$GPGGA,162812.00,3606.2179773,N,14005.1791299,E,5,11,0.9,31.732,M,38.037,M,0.0,*7B
$GPRMC,162842.00,A,3606.2179696,N,14005.1791126,E,0.03,0.00,270819,0.0,E,D*31
$GPGGA,162842.00,3606.2179696,N,14005.1791126,E,5,11,0.9,31.655,M,38.037,M,0.0,*73
$GPRMC,162912.00,A,3606.2179850,N,14005.1791271,E,0.03,0.00,270819,0.0,E,D*30
$GPGGA,162912.00,3606.2179850,N,14005.1791271,E,5,11,0.9,31.714,M,38.037,M,0.0,*76
$GPRMC,162942.00,A,3606.2181002,N,14005.1789998,E,0.05,0.00,270819,0.0,E,A*3B
$GPGGA,162942.00,3606.2181002,N,14005.1789998,E,1,17,0.9,34.259,M,38.037,M,0.0,*75
$GPRMC,163012.00,A,3606.2180449,N,14005.1791429,E,0.04,0.00,270819,0.0,E,D*36
$GPGGA,163012.00,3606.2180449,N,14005.1791429,E,5,11,0.9,31.491,M,38.037,M,0.0,*79
$GPRMC,163042.00,A,3606.2180431,N,14005.1790928,E,0.02,0.00,270819,0.0,E,D*37
$GPGGA,163042.00,3606.2180431,N,14005.1790928,E,5,10,0.9,31.539,M,38.037,M,0.0,*7C
$GPRMC,163112.00,A,3606.2180603,N,14005.1790881,E,0.05,0.00,270819,0.0,E,D*35
$GPGGA,163112.00,3606.2180603,N,14005.1790881,E,5,08,0.9,31.412,M,38.037,M,0.0,*78
$GPRMC,163142.00,A,3606.2183800,N,14005.1788555,E,0.02,0.00,270819,0.0,E,A*31
$GPGGA,163142.00,3606.2183800,N,14005.1788555,E,1,17,0.9,30.613,M,38.037,M,0.0,*76
$GPRMC,163212.00,A,3606.2181080,N,14005.1792106,E,0.07,0.00,270819,0.0,E,D*3C
$GPGGA,163212.00,3606.2181080,N,14005.1792106,E,5,11,0.9,32.083,M,38.037,M,0.0,*74
$GPRMC,163242.00,A,3606.2180586,N,14005.1791945,E,0.03,0.00,270819,0.0,E,D*33
$GPGGA,163242.00,3606.2180586,N,14005.1791945,E,5,10,0.9,31.877,M,38.037,M,0.0,*7E
$GPRMC,163312.00,A,3606.2180841,N,14005.1791389,E,0.05,0.00,270819,0.0,E,D*3D
$GPGGA,163312.00,3606.2180841,N,14005.1791389,E,5,08,0.9,31.527,M,38.037,M,0.0,*77
$GPRMC,163342.00,A,3606.2180596,N,14005.1791683,E,0.04,0.00,270819,0.0,E,D*31
$GPGGA,163342.00,3606.2180596,N,14005.1791683,E,5,11,0.9,31.725,M,38.037,M,0.0,*72
$GPRMC,163412.00,A,3606.2180443,N,14005.1791685,E,0.04,0.00,270819,0.0,E,D*3C
$GPGGA,163412.00,3606.2180443,N,14005.1791685,E,5,08,1.0,31.724,M,38.037,M,0.0,*7E
$GPRMC,163442.00,A,3606.2181207,N,14005.1793058,E,0.03,0.00,270819,0.0,E,A*38
$GPGGA,163442.00,3606.2181207,N,14005.1793058,E,1,17,1.0,34.480,M,38.037,M,0.0,*7A
$GPRMC,163512.00,A,3606.2180321,N,14005.1791122,E,0.05,0.00,270819,0.0,E,D*35
$GPGGA,163512.00,3606.2180321,N,14005.1791122,E,5,11,0.9,31.872,M,38.037,M,0.0,*7A
$GPRMC,163542.00,A,3606.2181121,N,14005.1790225,E,0.02,0.00,270819,0.0,E,D*31
$GPGGA,163542.00,3606.2181121,N,14005.1790225,E,5,10,1.0,31.594,M,38.037,M,0.0,*75
$GPRMC,163612.00,A,3606.2180622,N,14005.1790169,E,0.04,0.00,270819,0.0,E,D*3F
$GPGGA,163612.00,3606.2180622,N,14005.1790169,E,5,09,1.0,31.839,M,38.037,M,0.0,*7F
$GPRMC,163642.00,A,3606.2180567,N,14005.1790580,E,0.03,0.00,270819,0.0,E,D*3C
$GPGGA,163642.00,3606.2180567,N,14005.1790580,E,5,10,1.0,31.814,M,38.037,M,0.0,*7C
$GPRMC,163712.00,A,3606.2180375,N,14005.1790888,E,0.02,0.00,270819,0.0,E,D*39
$GPGGA,163712.00,3606.2180375,N,14005.1790888,E,5,09,1.0,31.790,M,38.037,M,0.0,*73
$GPRMC,163742.00,A,3606.2180583,N,14005.1790819,E,0.05,0.00,270819,0.0,E,D*3C
$GPGGA,163742.00,3606.2180583,N,14005.1790819,E,5,11,1.0,31.749,M,38.037,M,0.0,*7C
$GPRMC,163812.00,A,3606.2180350,N,14005.1790875,E,0.03,0.00,270819,0.0,E,D*32
$GPGGA,163812.00,3606.2180350,N,14005.1790875,E,5,11,0.9,31.905,M,38.037,M,0.0,*7A
$GPRMC,163842.00,A,3606.2180238,N,14005.1790957,E,0.01,0.00,270819,0.0,E,D*3B
$GPGGA,163842.00,3606.2180238,N,14005.1790957,E,5,07,0.9,31.848,M,38.037,M,0.0,*7E
$GPRMC,163912.00,A,3606.2177434,N,14005.1790406,E,0.01,0.00,270819,0.0,E,A*31
$GPGGA,163912.00,3606.2177434,N,14005.1790406,E,1,17,0.9,32.182,M,38.037,M,0.0,*78
$GPRMC,163942.00,A,3606.2181018,N,14005.1794985,E,0.01,0.00,270819,0.0,E,A*35
$GPGGA,163942.00,3606.2181018,N,14005.1794985,E,1,17,0.9,33.877,M,38.037,M,0.0,*7E
$GPRMC,164012.00,A,3606.2180149,N,14005.1792091,E,0.01,0.00,270819,0.0,E,D*35
$GPGGA,164012.00,3606.2180149,N,14005.1792091,E,5,11,0.9,31.665,M,38.037,M,0.0,*76
$GPRMC,164042.00,A,3606.2180960,N,14005.1791208,E,0.02,0.00,270819,0.0,E,D*31
$GPGGA,164042.00,3606.2180960,N,14005.1791208,E,5,11,0.9,31.450,M,38.037,M,0.0,*75
$GPRMC,164112.00,A,3606.2180820,N,14005.1791383,E,0.02,0.00,270819,0.0,E,D*32
$GPGGA,164112.00,3606.2180820,N,14005.1791383,E,5,09,0.9,31.528,M,38.037,M,0.0,*71
$GPRMC,164142.00,A,3606.2180729,N,14005.1791234,E,0.02,0.00,270819,0.0,E,D*3C
$GPGGA,164142.00,3606.2180729,N,14005.1791234,E,5,11,0.9,31.597,M,38.037,M,0.0,*72
$GPRMC,164212.00,A,3606.2180233,N,14005.1791206,E,0.03,0.00,270819,0.0,E,D*34
$GPGGA,164212.00,3606.2180233,N,14005.1791206,E,5,09,0.9,31.736,M,38.037,M,0.0,*7B
$GPRMC,164242.00,A,3606.2180320,N,14005.1791313,E,0.02,0.00,270819,0.0,E,D*36
$GPGGA,164242.00,3606.2180320,N,14005.1791313,E,5,07,1.0,31.782,M,38.037,M,0.0,*71
$GPRMC,164312.00,A,3606.2180364,N,14005.1791227,E,0.03,0.00,270819,0.0,E,D*35
$GPGGA,164312.00,3606.2180364,N,14005.1791227,E,5,11,1.0,31.691,M,38.037,M,0.0,*77
$GPRMC,164342.00,A,3606.2180142,N,14005.1791296,E,0.03,0.00,270819,0.0,E,D*3C
$GPGGA,164342.00,3606.2180142,N,14005.1791296,E,5,07,1.0,31.789,M,38.037,M,0.0,*71
$GPRMC,164412.00,A,3606.2181993,N,14005.1792815,E,0.01,0.00,270819,0.0,E,A*3E
$GPGGA,164412.00,3606.2181993,N,14005.1792815,E,1,17,1.0,31.745,M,38.037,M,0.0,*71
$GPRMC,164442.00,A,3606.2181245,N,14005.1791108,E,0.03,0.00,270819,0.0,E,A*3F
$GPGGA,164442.00,3606.2181245,N,14005.1791108,E,1,17,1.0,33.420,M,38.037,M,0.0,*70
$GPRMC,164512.00,A,3606.2180572,N,14005.1789637,E,0.02,0.00,270819,0.0,E,D*3F
$GPGGA,164512.00,3606.2180572,N,14005.1789637,E,5,11,1.0,31.562,M,38.037,M,0.0,*73
$GPRMC,164542.00,A,3606.2181449,N,14005.1790261,E,0.02,0.00,270819,0.0,E,A*38
$GPGGA,164542.00,3606.2181449,N,14005.1790261,E,1,17,1.0,31.264,M,38.037,M,0.0,*72
$GPRMC,164612.00,A,3606.2179069,N,14005.1791990,E,0.04,0.00,270819,0.0,E,D*38
$GPGGA,164612.00,3606.2179069,N,14005.1791990,E,5,11,1.0,32.157,M,38.037,M,0.0,*73
$GPRMC,164642.00,A,3606.2179958,N,14005.1791293,E,0.02,0.00,270819,0.0,E,D*38
$GPGGA,164642.00,3606.2179958,N,14005.1791293,E,5,09,1.0,32.053,M,38.037,M,0.0,*79
$GPRMC,164712.00,A,3606.2179817,N,14005.1791264,E,0.03,0.00,270819,0.0,E,D*3F
$GPGGA,164712.00,3606.2179817,N,14005.1791264,E,5,11,1.0,32.009,M,38.037,M,0.0,*79
$GPRMC,164742.00,A,3606.2180230,N,14005.1791302,E,0.02,0.00,270819,0.0,E,D*33
$GPGGA,164742.00,3606.2180230,N,14005.1791302,E,5,11,1.0,31.830,M,38.037,M,0.0,*75
$GPRMC,164812.00,A,3606.2179900,N,14005.1791108,E,0.05,0.00,270819,0.0,E,D*38
$GPGGA,164812.00,3606.2179900,N,14005.1791108,E,5,09,1.0,32.010,M,38.037,M,0.0,*79
$GPRMC,164842.00,A,3606.2180257,N,14005.1791122,E,0.04,0.00,270819,0.0,E,D*3B
$GPGGA,164842.00,3606.2180257,N,14005.1791122,E,4,11,1.0,31.750,M,38.037,M,0.0,*73
$GPRMC,164912.00,A,3606.2180258,N,14005.1791051,E,0.01,0.00,270819,0.0,E,D*30
$GPGGA,164912.00,3606.2180258,N,14005.1791051,E,4,10,1.0,31.718,M,38.037,M,0.0,*70
$GPRMC,164942.00,A,3606.2180599,N,14005.1793601,E,0.01,0.00,270819,0.0,E,A*3B
$GPGGA,164942.00,3606.2180599,N,14005.1793601,E,1,17,1.0,32.946,M,38.037,M,0.0,*7A
$GPRMC,165012.00,A,3606.2179305,N,14005.1791648,E,0.04,0.00,270819,0.0,E,D*3C
$GPGGA,165012.00,3606.2179305,N,14005.1791648,E,5,11,1.0,32.121,M,38.037,M,0.0,*76
$GPRMC,165042.00,A,3606.2179788,N,14005.1790531,E,0.02,0.00,270819,0.0,E,D*32
$GPGGA,165042.00,3606.2179788,N,14005.1790531,E,5,11,1.0,32.077,M,38.037,M,0.0,*7C
$GPRMC,165112.00,A,3606.2180267,N,14005.1790495,E,0.02,0.00,270819,0.0,E,D*3B
$GPGGA,165112.00,3606.2180267,N,14005.1790495,E,5,08,1.2,31.892,M,38.037,M,0.0,*7F
$GPRMC,165142.00,A,3606.2182921,N,14005.1790677,E,0.02,0.00,270819,0.0,E,A*3E
$GPGGA,165142.00,3606.2182921,N,14005.1790677,E,1,17,1.2,33.563,M,38.037,M,0.0,*74
$GPRMC,165212.00,A,3606.2181013,N,14005.1791366,E,0.05,0.00,270819,0.0,E,D*35
$GPGGA,165212.00,3606.2181013,N,14005.1791366,E,5,09,1.2,31.301,M,38.037,M,0.0,*76
$GPRMC,165242.00,A,3606.2181047,N,14005.1791080,E,0.02,0.00,270819,0.0,E,D*3D
$GPGGA,165242.00,3606.2181047,N,14005.1791080,E,5,09,1.2,31.260,M,38.037,M,0.0,*7F
$GPRMC,165312.00,A,3606.2180824,N,14005.1791313,E,0.00,0.00,270819,0.0,E,D*3E
$GPGGA,165312.00,3606.2180824,N,14005.1791313,E,5,11,1.2,31.358,M,38.037,M,0.0,*7D
$GPRMC,165342.00,A,3606.2180442,N,14005.1791393,E,0.00,0.00,270819,0.0,E,D*3F
$GPGGA,165342.00,3606.2180442,N,14005.1791393,E,5,11,1.2,31.618,M,38.037,M,0.0,*7D
$GPRMC,165412.00,A,3606.2180614,N,14005.1790945,E,0.00,0.00,270819,0.0,E,D*3C
$GPGGA,165412.00,3606.2180614,N,14005.1790945,E,5,07,1.2,31.580,M,38.037,M,0.0,*7B
$GPRMC,165442.00,A,3606.2177069,N,14005.1796618,E,0.02,0.00,270819,0.0,E,A*3B
$GPGGA,165442.00,3606.2177069,N,14005.1796618,E,1,17,1.2,34.097,M,38.037,M,0.0,*78
$GPRMC,165512.00,A,3606.2181620,N,14005.1790890,E,0.02,0.00,270819,0.0,E,D*30
$GPGGA,165512.00,3606.2181620,N,14005.1790890,E,5,11,1.2,31.230,M,38.037,M,0.0,*7E
$GPRMC,165542.00,A,3606.2180849,N,14005.1790932,E,0.01,0.00,270819,0.0,E,D*3F
$GPGGA,165542.00,3606.2180849,N,14005.1790932,E,5,07,1.2,31.577,M,38.037,M,0.0,*71
$GPRMC,165612.00,A,3606.2179829,N,14005.1788116,E,0.04,0.00,270819,0.0,E,A*3E
$GPGGA,165612.00,3606.2179829,N,14005.1788116,E,1,17,1.2,31.811,M,38.037,M,0.0,*78
$GPRMC,165642.00,A,3606.2181649,N,14005.1790834,E,0.07,0.00,270819,0.0,E,D*32
$GPGGA,165642.00,3606.2181649,N,14005.1790834,E,5,11,1.2,31.571,M,38.037,M,0.0,*7B
$GPRMC,165712.00,A,3606.2183130,N,14005.1787873,E,0.04,0.00,270819,0.0,E,A*3E
$GPGGA,165712.00,3606.2183130,N,14005.1787873,E,1,17,1.2,32.542,M,38.037,M,0.0,*70
$GPRMC,165742.00,A,3606.2180888,N,14005.1790941,E,0.06,0.00,270819,0.0,E,D*33
$GPGGA,165742.00,3606.2180888,N,14005.1790941,E,5,11,1.2,32.145,M,38.037,M,0.0,*7B
$GPRMC,165812.00,A,3606.2181023,N,14005.1791443,E,0.05,0.00,270819,0.0,E,D*3C
$GPGGA,165812.00,3606.2181023,N,14005.1791443,E,5,11,1.2,31.930,M,38.037,M,0.0,*7E
$GPRMC,165842.00,A,3606.2181061,N,14005.1791656,E,0.04,0.00,270819,0.0,E,D*38
$GPGGA,165842.00,3606.2181061,N,14005.1791656,E,5,11,1.2,31.692,M,38.037,M,0.0,*7C
$GPRMC,165912.00,A,3606.2181135,N,14005.1791209,E,0.03,0.00,270819,0.0,E,D*35
$GPGGA,165912.00,3606.2181135,N,14005.1791209,E,5,11,1.2,31.643,M,38.037,M,0.0,*7A
