$GPRMC,160012.00,A,3606.2180027,N,14005.1790750,E,0.02,0.00,270819,0.0,E,D*33
$GPGGA,160012.00,3606.2180027,N,14005.1790750,E,5,11,1.1,31.818,M,38.037,M,0.0,*7E
$GPRMC,160042.00,A,3606.2180224,N,14005.1790886,E,0.03,0.00,270819,0.0,E,D*32
$GPGGA,160042.00,3606.2180224,N,14005.1790886,E,5,09,1.1,31.719,M,38.037,M,0.0,*79
$GPRMC,160112.00,A,3606.2180266,N,14005.1791394,E,0.04,0.00,270819,0.0,E,D*3E
$GPGGA,160112.00,3606.2180266,N,14005.1791394,E,5,07,1.1,31.734,M,38.037,M,0.0,*73
$GPRMC,160142.00,A,3606.2180124,N,14005.1790585,E,0.05,0.00,270819,0.0,E,D*38
$GPGGA,160142.00,3606.2180124,N,14005.1790585,E,5,09,1.1,31.668,M,38.037,M,0.0,*72
$GPRMC,160212.00,A,3606.2180142,N,14005.1790695,E,0.02,0.00,270819,0.0,E,D*3B
$GPGGA,160212.00,3606.2180142,N,14005.1790695,E,5,09,1.1,31.715,M,38.037,M,0.0,*7D
$GPRMC,160242.00,A,3606.2180131,N,14005.1790914,E,0.05,0.00,270819,0.0,E,D*3B
$GPGGA,160242.00,3606.2180131,N,14005.1790914,E,5,10,1.1,31.711,M,38.037,M,0.0,*76
$GPRMC,160312.00,A,3606.2180195,N,14005.1790921,E,0.05,0.00,270819,0.0,E,D*37
$GPGGA,160312.00,3606.2180195,N,14005.1790921,E,5,06,1.1,31.749,M,38.037,M,0.0,*70
$GPRMC,160342.00,A,3606.2180050,N,14005.1790585,E,0.07,0.00,270819,0.0,E,D*3A
$GPGGA,160342.00,3606.2180050,N,14005.1790585,E,5,07,1.1,31.762,M,38.037,M,0.0,*77
$GPRMC,160412.00,A,3606.2180121,N,14005.1790806,E,0.06,0.00,270819,0.0,E,D*38
$GPGGA,160412.00,3606.2180121,N,14005.1790806,E,5,08,1.1,31.818,M,38.037,M,0.0,*79
$GPRMC,160442.00,A,3606.2179896,N,14005.1790500,E,0.08,0.00,270819,0.0,E,D*3B
$GPGGA,160442.00,3606.2179896,N,14005.1790500,E,5,09,1.1,31.713,M,38.037,M,0.0,*71
$GPRMC,160512.00,A,3606.2178331,N,14005.1796178,E,0.04,0.00,270819,0.0,E,A*3C
$GPGGA,160512.00,3606.2178331,N,14005.1796178,E,1,13,1.1,33.843,M,38.037,M,0.0,*78
$GPRMC,160542.00,A,3606.2179657,N,14005.1790723,E,0.11,0.00,270819,0.0,E,D*32
$GPGGA,160542.00,3606.2179657,N,14005.1790723,E,5,09,1.1,32.029,M,38.037,M,0.0,*7D
$GPRMC,160612.00,A,3606.2180285,N,14005.1790550,E,0.04,0.00,270819,0.0,E,D*3B
$GPGGA,160612.00,3606.2180285,N,14005.1790550,E,5,08,1.1,32.028,M,38.037,M,0.0,*70
$GPRMC,160642.00,A,3606.2180149,N,14005.1790706,E,0.02,0.00,270819,0.0,E,D*3A
$GPGGA,160642.00,3606.2180149,N,14005.1790706,E,5,07,1.1,32.027,M,38.037,M,0.0,*77
$GPRMC,160712.00,A,3606.2180231,N,14005.1790650,E,0.02,0.00,270819,0.0,E,D*30
$GPGGA,160712.00,3606.2180231,N,14005.1790650,E,5,08,1.1,32.070,M,38.037,M,0.0,*70
$GPRMC,160742.00,A,3606.2180273,N,14005.1790800,E,0.07,0.00,270819,0.0,E,D*3D
$GPGGA,160742.00,3606.2180273,N,14005.1790800,E,5,11,1.1,32.008,M,38.037,M,0.0,*7F
$GPRMC,160812.00,A,3606.2180246,N,14005.1790993,E,0.06,0.00,270819,0.0,E,D*3B
$GPGGA,160812.00,3606.2180246,N,14005.1790993,E,5,09,1.1,32.035,M,38.037,M,0.0,*7F
$GPRMC,160842.00,A,3606.2180287,N,14005.1790970,E,0.01,0.00,270819,0.0,E,D*39
$GPGGA,160842.00,3606.2180287,N,14005.1790970,E,5,10,1.1,32.074,M,38.037,M,0.0,*77
$GPRMC,160912.00,A,3606.2180068,N,14005.1791076,E,0.06,0.00,270819,0.0,E,D*37
$GPGGA,160912.00,3606.2180068,N,14005.1791076,E,5,11,1.1,32.119,M,38.037,M,0.0,*75
$GPRMC,160942.00,A,3606.2179992,N,14005.1791364,E,0.06,0.00,270819,0.0,E,D*38
$GPGGA,160942.00,3606.2179992,N,14005.1791364,E,5,07,1.1,32.165,M,38.037,M,0.0,*76
$GPRMC,161012.00,A,3606.2184457,N,14005.1793967,E,0.03,0.00,270819,0.0,E,A*38
$GPGGA,161012.00,3606.2184457,N,14005.1793967,E,1,13,1.1,31.875,M,38.037,M,0.0,*7C
$GPRMC,161042.00,A,3606.2180093,N,14005.1791187,E,0.07,0.00,270819,0.0,E,D*30
$GPGGA,161042.00,3606.2180093,N,14005.1791187,E,5,11,1.1,31.876,M,38.037,M,0.0,*70
$GPRMC,161112.00,A,3606.2180319,N,14005.1791401,E,0.05,0.00,270819,0.0,E,D*3C
$GPGGA,161112.00,3606.2180319,N,14005.1791401,E,5,09,1.1,31.776,M,38.037,M,0.0,*78
$GPRMC,161142.00,A,3606.2180363,N,14005.1791642,E,0.02,0.00,270819,0.0,E,D*36
$GPGGA,161142.00,3606.2180363,N,14005.1791642,E,5,11,1.1,31.798,M,38.037,M,0.0,*7C
$GPRMC,161212.00,A,3606.2180318,N,14005.1791391,E,0.07,0.00,270819,0.0,E,D*32
$GPGGA,161212.00,3606.2180318,N,14005.1791391,E,5,11,1.1,31.778,M,38.037,M,0.0,*73
$GPRMC,161242.00,A,3606.2180515,N,14005.1791327,E,0.02,0.00,270819,0.0,E,D*34
$GPGGA,161242.00,3606.2180515,N,14005.1791327,E,5,07,1.1,31.690,M,38.037,M,0.0,*70
$GPRMC,161312.00,A,3606.2180433,N,14005.1791302,E,0.06,0.00,270819,0.0,E,D*36
$GPGGA,161312.00,3606.2180433,N,14005.1791302,E,5,11,1.1,31.798,M,38.037,M,0.0,*78
$GPRMC,161342.00,A,3606.2180228,N,14005.1791056,E,0.02,0.00,270819,0.0,E,D*39
$GPGGA,161342.00,3606.2180228,N,14005.1791056,E,5,11,1.1,31.714,M,38.037,M,0.0,*77
$GPRMC,161412.00,A,3606.2180273,N,14005.1791092,E,0.03,0.00,270819,0.0,E,D*3C
$GPGGA,161412.00,3606.2180273,N,14005.1791092,E,4,10,1.0,31.817,M,38.037,M,0.0,*7E
$GPRMC,161442.00,A,3606.2180197,N,14005.1790958,E,0.03,0.00,270819,0.0,E,D*3E
$GPGGA,161442.00,3606.2180197,N,14005.1790958,E,4,07,1.0,31.729,M,38.037,M,0.0,*78
$GPRMC,161512.00,A,3606.2184865,N,14005.1791857,E,0.06,0.00,270819,0.0,E,A*35
$GPGGA,161512.00,3606.2184865,N,14005.1791857,E,1,15,1.0,33.292,M,38.037,M,0.0,*72
$GPRMC,161542.00,A,3606.2180442,N,14005.1792661,E,0.01,0.00,270819,0.0,E,D*37
$GPGGA,161542.00,3606.2180442,N,14005.1792661,E,5,11,1.0,32.202,M,38.037,M,0.0,*7A
$GPRMC,161612.00,A,3606.2180037,N,14005.1792891,E,0.06,0.00,270819,0.0,E,A*34
$GPGGA,161612.00,3606.2180037,N,14005.1792891,E,1,16,1.0,32.088,M,38.037,M,0.0,*78
$GPRMC,161642.00,A,3606.2180098,N,14005.1791726,E,0.02,0.00,270819,0.0,E,D*35
$GPGGA,161642.00,3606.2180098,N,14005.1791726,E,5,11,1.0,31.980,M,38.037,M,0.0,*79
$GPRMC,161712.00,A,3606.2180516,N,14005.1791508,E,0.04,0.00,270819,0.0,E,D*3A
$GPGGA,161712.00,3606.2180516,N,14005.1791508,E,5,11,1.0,31.691,M,38.037,M,0.0,*7F
$GPRMC,161742.00,A,3606.2180257,N,14005.1791534,E,0.01,0.00,270819,0.0,E,D*37
$GPGGA,161742.00,3606.2180257,N,14005.1791534,E,5,09,1.0,31.618,M,38.037,M,0.0,*7F
$GPRMC,161812.00,A,3606.2180032,N,14005.1791645,E,0.03,0.00,270819,0.0,E,D*3B
$GPGGA,161812.00,3606.2180032,N,14005.1791645,E,5,11,1.0,31.796,M,38.037,M,0.0,*7F
$GPRMC,161842.00,A,3606.2179855,N,14005.1791591,E,0.02,0.00,270819,0.0,E,D*3A
$GPGGA,161842.00,3606.2179855,N,14005.1791591,E,5,11,1.0,31.795,M,38.037,M,0.0,*7C
$GPRMC,161912.00,A,3606.2180080,N,14005.1791150,E,0.01,0.00,270819,0.0,E,D*32
$GPGGA,161912.00,3606.2180080,N,14005.1791150,E,4,11,1.0,31.815,M,38.037,M,0.0,*71
$GPRMC,161942.00,A,3606.2180089,N,14005.1791033,E,0.09,0.00,270819,0.0,E,D*32
$GPGGA,161942.00,3606.2180089,N,14005.1791033,E,4,11,1.0,31.691,M,38.037,M,0.0,*7B
$GPRMC,162012.00,A,3606.2183013,N,14005.1792802,E,0.02,0.00,270819,0.0,E,A*3A
$GPGGA,162012.00,3606.2183013,N,14005.1792802,E,1,16,1.0,36.030,M,38.037,M,0.0,*75
$GPRMC,162042.00,A,3606.2179455,N,14005.1791723,E,0.03,0.00,270819,0.0,E,D*37
$GPGGA,162042.00,3606.2179455,N,14005.1791723,E,5,11,0.9,32.046,M,38.037,M,0.0,*72
$GPRMC,162112.00,A,3606.2181382,N,14005.1789721,E,0.04,0.00,270819,0.0,E,A*30
$GPGGA,162112.00,3606.2181382,N,14005.1789721,E,1,16,0.9,31.927,M,38.037,M,0.0,*79
$GPRMC,162142.00,A,3606.2179808,N,14005.1791024,E,0.01,0.00,270819,0.0,E,D*30
$GPGGA,162142.00,3606.2179808,N,14005.1791024,E,5,11,0.9,31.849,M,38.037,M,0.0,*73
$GPRMC,162212.00,A,3606.2180644,N,14005.1791086,E,0.02,0.00,270819,0.0,E,D*3D
$GPGGA,162212.00,3606.2180644,N,14005.1791086,E,5,08,0.9,31.877,M,38.037,M,0.0,*78
$GPRMC,162242.00,A,3606.2180452,N,14005.1791135,E,0.01,0.00,270819,0.0,E,D*37
$GPGGA,162242.00,3606.2180452,N,14005.1791135,E,5,11,0.9,31.883,M,38.037,M,0.0,*72
$GPRMC,162312.00,A,3606.2182121,N,14005.1790265,E,0.05,0.00,270819,0.0,E,A*36
$GPGGA,162312.00,3606.2182121,N,14005.1790265,E,1,16,0.9,32.018,M,38.037,M,0.0,*78
$GPRMC,162342.00,A,3606.2180506,N,14005.1791567,E,0.05,0.00,270819,0.0,E,D*31
$GPGGA,162342.00,3606.2180506,N,14005.1791567,E,5,11,0.9,31.857,M,38.037,M,0.0,*79
$GPRMC,162412.00,A,3606.2183383,N,14005.1792122,E,0.06,0.00,270819,0.0,E,A*3B
$GPGGA,162412.00,3606.2183383,N,14005.1792122,E,1,16,0.9,31.272,M,38.037,M,0.0,*7B
$GPRMC,162442.00,A,3606.2180010,N,14005.1790567,E,0.02,0.00,270819,0.0,E,D*32
$GPGGA,162442.00,3606.2180010,N,14005.1790567,E,5,11,0.9,31.971,M,38.037,M,0.0,*78
$GPRMC,162512.00,A,3606.2183077,N,14005.1793733,E,0.05,0.00,270819,0.0,E,A*36
$GPGGA,162512.00,3606.2183077,N,14005.1793733,E,1,16,0.9,32.519,M,38.037,M,0.0,*7C
$GPRMC,162542.00,A,3606.2180204,N,14005.1790031,E,0.02,0.00,270819,0.0,E,D*32
$GPGGA,162542.00,3606.2180204,N,14005.1790031,E,5,11,0.9,31.163,M,38.037,M,0.0,*73
$GPRMC,162612.00,A,3606.2180682,N,14005.1789582,E,0.03,0.00,270819,0.0,E,A*3F
$GPGGA,162612.00,3606.2180682,N,14005.1789582,E,1,17,0.9,30.825,M,38.037,M,0.0,*72
$GPRMC,162642.00,A,3606.2179981,N,14005.1790709,E,0.05,0.00,270819,0.0,E,D*3A
$GPGGA,162642.00,3606.2179981,N,14005.1790709,E,5,11,0.9,31.359,M,38.037,M,0.0,*77
$GPRMC,162712.00,A,3606.2180379,N,14005.1791382,E,0.03,0.00,270819,0.0,E,D*35
$GPGGA,162712.00,3606.2180379,N,14005.1791382,E,5,07,0.9,31.751,M,38.037,M,0.0,*75
$GPRMC,162742.00,A,3606.2179901,N,14005.1791389,E,0.02,0.00,270819,0.0,E,D*39
$GPGGA,162742.00,3606.2179901,N,14005.1791389,E,5,08,0.9,31.462,M,38.037,M,0.0,*74
$GPRMC,162812.00,A,3606.2180095,N,14005.1791784,E,0.03,0.00,270819,0.0,E,D*39
$GPGGA,162812.00,3606.2180095,N,14005.1791784,E,5,10,0.9,31.607,M,38.037,M,0.0,*7D
$GPRMC,162842.00,A,3606.2182081,N,14005.1792040,E,0.03,0.00,270819,0.0,E,A*32
$GPGGA,162842.00,3606.2182081,N,14005.1792040,E,1,17,0.9,32.915,M,38.037,M,0.0,*7F
$GPRMC,162912.00,A,3606.2180034,N,14005.1791817,E,0.03,0.00,270819,0.0,E,D*36
$GPGGA,162912.00,3606.2180034,N,14005.1791817,E,5,11,0.9,31.979,M,38.037,M,0.0,*75
$GPRMC,162942.00,A,3606.2180211,N,14005.1791480,E,0.05,0.00,270819,0.0,E,D*32
$GPGGA,162942.00,3606.2180211,N,14005.1791480,E,5,11,0.9,31.701,M,38.037,M,0.0,*76
$GPRMC,163012.00,A,3606.2179694,N,14005.1794802,E,0.04,0.00,270819,0.0,E,A*37
$GPGGA,163012.00,3606.2179694,N,14005.1794802,E,1,17,0.9,33.279,M,38.037,M,0.0,*7D
$GPRMC,163042.00,A,3606.2180627,N,14005.1790309,E,0.02,0.00,270819,0.0,E,D*3B
$GPGGA,163042.00,3606.2180627,N,14005.1790309,E,5,11,0.9,31.614,M,38.037,M,0.0,*7D
$GPRMC,163112.00,A,3606.2180760,N,14005.1790540,E,0.05,0.00,270819,0.0,E,D*31
$GPGGA,163112.00,3606.2180760,N,14005.1790540,E,5,11,0.9,31.463,M,38.037,M,0.0,*72
$GPRMC,163142.00,A,3606.2180733,N,14005.1790652,E,0.02,0.00,270819,0.0,E,D*35
$GPGGA,163142.00,3606.2180733,N,14005.1790652,E,5,10,0.9,31.522,M,38.037,M,0.0,*74
$GPRMC,163212.00,A,3606.2180731,N,14005.1791216,E,0.07,0.00,270819,0.0,E,D*31
$GPGGA,163212.00,3606.2180731,N,14005.1791216,E,5,10,0.9,31.686,M,38.037,M,0.0,*78
$GPRMC,163242.00,A,3606.2180617,N,14005.1791242,E,0.03,0.00,270819,0.0,E,D*34
$GPGGA,163242.00,3606.2180617,N,14005.1791242,E,5,09,0.9,31.654,M,38.037,M,0.0,*7E
$GPRMC,163312.00,A,3606.2180203,N,14005.1790984,E,0.05,0.00,270819,0.0,E,D*37
$GPGGA,163312.00,3606.2180203,N,14005.1790984,E,4,10,0.9,31.644,M,38.037,M,0.0,*73
$GPRMC,163342.00,A,3606.2180167,N,14005.1791204,E,0.04,0.00,270819,0.0,E,D*30
$GPGGA,163342.00,3606.2180167,N,14005.1791204,E,4,11,0.9,31.728,M,38.037,M,0.0,*7F
$GPRMC,163412.00,A,3606.2180183,N,14005.1791207,E,0.04,0.00,270819,0.0,E,D*3B
$GPGGA,163412.00,3606.2180183,N,14005.1791207,E,4,11,1.0,31.722,M,38.037,M,0.0,*76
$GPRMC,163442.00,A,3606.2180221,N,14005.1791134,E,0.03,0.00,270819,0.0,E,D*31
$GPGGA,163442.00,3606.2180221,N,14005.1791134,E,4,11,1.0,31.708,M,38.037,M,0.0,*73
$GPRMC,163512.00,A,3606.2179276,N,14005.1795291,E,0.05,0.00,270819,0.0,E,A*3A
$GPGGA,163512.00,3606.2179276,N,14005.1795291,E,1,17,1.0,34.342,M,38.037,M,0.0,*77
$GPRMC,163542.00,A,3606.2181959,N,14005.1789407,E,0.02,0.00,270819,0.0,E,D*38
$GPGGA,163542.00,3606.2181959,N,14005.1789407,E,5,11,1.0,31.236,M,38.037,M,0.0,*72
$GPRMC,163612.00,A,3606.2180908,N,14005.1789614,E,0.04,0.00,270819,0.0,E,D*3D
$GPGGA,163612.00,3606.2180908,N,14005.1789614,E,5,08,1.0,31.825,M,38.037,M,0.0,*71
$GPRMC,163642.00,A,3606.2180772,N,14005.1790246,E,0.03,0.00,270819,0.0,E,D*37
$GPGGA,163642.00,3606.2180772,N,14005.1790246,E,5,10,1.0,31.845,M,38.037,M,0.0,*73
$GPRMC,163712.00,A,3606.2180526,N,14005.1790603,E,0.02,0.00,270819,0.0,E,D*34
$GPGGA,163712.00,3606.2180526,N,14005.1790603,E,5,08,1.0,31.752,M,38.037,M,0.0,*71
$GPRMC,163742.00,A,3606.2178279,N,14005.1792079,E,0.05,0.00,270819,0.0,E,A*30
$GPGGA,163742.00,3606.2178279,N,14005.1792079,E,1,17,1.0,31.934,M,38.037,M,0.0,*73
$GPRMC,163812.00,A,3606.2178905,N,14005.1791679,E,0.03,0.00,270819,0.0,E,D*3C
$GPGGA,163812.00,3606.2178905,N,14005.1791679,E,5,11,0.9,32.452,M,38.037,M,0.0,*78
$GPRMC,163842.00,A,3606.2179244,N,14005.1791170,E,0.01,0.00,270819,0.0,E,D*3A
$GPGGA,163842.00,3606.2179244,N,14005.1791170,E,5,11,0.9,32.130,M,38.037,M,0.0,*7D
$GPRMC,163912.00,A,3606.2179429,N,14005.1791290,E,0.01,0.00,270819,0.0,E,D*3E
$GPGGA,163912.00,3606.2179429,N,14005.1791290,E,5,11,0.9,32.079,M,38.037,M,0.0,*75
$GPRMC,163942.00,A,3606.2179651,N,14005.1790969,E,0.01,0.00,270819,0.0,E,D*3A
$GPGGA,163942.00,3606.2179651,N,14005.1790969,E,5,11,0.9,32.003,M,38.037,M,0.0,*7C
$GPRMC,164012.00,A,3606.2181740,N,14005.1789956,E,0.01,0.00,270819,0.0,E,A*36
$GPGGA,164012.00,3606.2181740,N,14005.1789956,E,1,17,0.9,33.422,M,38.037,M,0.0,*71
$GPRMC,164042.00,A,3606.2181723,N,14005.1790386,E,0.02,0.00,270819,0.0,E,D*3F
$GPGGA,164042.00,3606.2181723,N,14005.1790386,E,5,11,0.9,31.322,M,38.037,M,0.0,*79
$GPRMC,164112.00,A,3606.2181149,N,14005.1791037,E,0.02,0.00,270819,0.0,E,D*39
$GPGGA,164112.00,3606.2181149,N,14005.1791037,E,5,07,0.9,31.500,M,38.037,M,0.0,*7E
$GPRMC,164142.00,A,3606.2180627,N,14005.1790966,E,0.02,0.00,270819,0.0,E,D*3E
$GPGGA,164142.00,3606.2180627,N,14005.1790966,E,5,10,0.9,31.679,M,38.037,M,0.0,*72
$GPRMC,164212.00,A,3606.2180249,N,14005.1790936,E,0.03,0.00,270819,0.0,E,D*30
$GPGGA,164212.00,3606.2180249,N,14005.1790936,E,5,07,0.9,31.802,M,38.037,M,0.0,*79
$GPRMC,164242.00,A,3606.2180082,N,14005.1791085,E,0.02,0.00,270819,0.0,E,D*31
$GPGGA,164242.00,3606.2180082,N,14005.1791085,E,5,11,1.0,31.872,M,38.037,M,0.0,*71
$GPRMC,164312.00,A,3606.2180362,N,14005.1791130,E,0.03,0.00,270819,0.0,E,D*36
$GPGGA,164312.00,3606.2180362,N,14005.1791130,E,4,07,1.0,31.695,M,38.037,M,0.0,*76
$GPRMC,164342.00,A,3606.2180389,N,14005.1791148,E,0.03,0.00,270819,0.0,E,D*39
$GPGGA,164342.00,3606.2180389,N,14005.1791148,E,4,09,1.0,31.707,M,38.037,M,0.0,*7D
$GPRMC,164412.00,A,3606.2179892,N,14005.1791308,E,0.01,0.00,270819,0.0,E,D*38
$GPGGA,164412.00,3606.2179892,N,14005.1791308,E,4,10,1.0,31.814,M,38.037,M,0.0,*7B
$GPRMC,164442.00,A,3606.2179932,N,14005.1791082,E,0.03,0.00,270819,0.0,E,D*35
$GPGGA,164442.00,3606.2179932,N,14005.1791082,E,5,07,1.0,31.830,M,38.037,M,0.0,*75
$GPRMC,164512.00,A,3606.2183716,N,14005.1794461,E,0.02,0.00,270819,0.0,E,A*34
$GPGGA,164512.00,3606.2183716,N,14005.1794461,E,1,17,1.0,32.316,M,38.037,M,0.0,*79
$GPRMC,164542.00,A,3606.2180581,N,14005.1790966,E,0.02,0.00,270819,0.0,E,D*35
$GPGGA,164542.00,3606.2180581,N,14005.1790966,E,5,11,1.0,31.861,M,38.037,M,0.0,*77
$GPRMC,164612.00,A,3606.2179877,N,14005.1791549,E,0.04,0.00,270819,0.0,E,D*37
$GPGGA,164612.00,3606.2179877,N,14005.1791549,E,5,11,1.0,31.945,M,38.037,M,0.0,*74
$GPRMC,164642.00,A,3606.2180077,N,14005.1791226,E,0.02,0.00,270819,0.0,E,D*34
$GPGGA,164642.00,3606.2180077,N,14005.1791226,E,5,09,1.0,31.992,M,38.037,M,0.0,*72
$GPRMC,164712.00,A,3606.2180043,N,14005.1791321,E,0.03,0.00,270819,0.0,E,D*30
$GPGGA,164712.00,3606.2180043,N,14005.1791321,E,5,07,1.0,31.950,M,38.037,M,0.0,*77
$GPRMC,164742.00,A,3606.2180444,N,14005.1791466,E,0.02,0.00,270819,0.0,E,D*33
$GPGGA,164742.00,3606.2180444,N,14005.1791466,E,5,07,1.0,31.727,M,38.037,M,0.0,*7B
$GPRMC,164812.00,A,3606.2178869,N,14005.1791311,E,0.05,0.00,270819,0.0,E,D*3D
$GPGGA,164812.00,3606.2178869,N,14005.1791311,E,5,07,1.0,32.246,M,38.037,M,0.0,*73
$GPRMC,164842.00,A,3606.2179650,N,14005.1791147,E,0.04,0.00,270819,0.0,E,D*3D
$GPGGA,164842.00,3606.2179650,N,14005.1791147,E,5,11,1.0,32.003,M,38.037,M,0.0,*76
$GPRMC,164912.00,A,3606.2179690,N,14005.1791134,E,0.01,0.00,270819,0.0,E,D*34
$GPGGA,164912.00,3606.2179690,N,14005.1791134,E,5,07,1.0,32.027,M,38.037,M,0.0,*7B
$GPRMC,164942.00,A,3606.2180022,N,14005.1791159,E,0.01,0.00,270819,0.0,E,D*33
$GPGGA,164942.00,3606.2180022,N,14005.1791159,E,5,11,1.0,31.860,M,38.037,M,0.0,*73
$GPRMC,165012.00,A,3606.2179084,N,14005.1792446,E,0.04,0.00,270819,0.0,E,A*3C
$GPGGA,165012.00,3606.2179084,N,14005.1792446,E,1,17,1.0,33.755,M,38.037,M,0.0,*75
$GPRMC,165042.00,A,3606.2180177,N,14005.1789522,E,0.02,0.00,270819,0.0,E,D*38
$GPGGA,165042.00,3606.2180177,N,14005.1789522,E,5,11,1.0,32.086,M,38.037,M,0.0,*78
$GPRMC,165112.00,A,3606.2180842,N,14005.1789760,E,0.02,0.00,270819,0.0,E,D*37
$GPGGA,165112.00,3606.2180842,N,14005.1789760,E,5,08,1.2,31.725,M,38.037,M,0.0,*70
$GPRMC,165142.00,A,3606.2180917,N,14005.1787784,E,0.02,0.00,270819,0.0,E,A*32
$GPGGA,165142.00,3606.2180917,N,14005.1787784,E,1,17,1.2,32.593,M,38.037,M,0.0,*76
$GPRMC,165212.00,A,3606.2181013,N,14005.1791366,E,0.05,0.00,270819,0.0,E,D*35
$GPGGA,165212.00,3606.2181013,N,14005.1791366,E,5,09,1.2,31.301,M,38.037,M,0.0,*76
$GPRMC,165242.00,A,3606.2181047,N,14005.1791080,E,0.02,0.00,270819,0.0,E,D*3D
$GPGGA,165242.00,3606.2181047,N,14005.1791080,E,5,07,1.2,31.260,M,38.037,M,0.0,*71
$GPRMC,165312.00,A,3606.2180666,N,14005.1791278,E,0.00,0.00,270819,0.0,E,D*3A
$GPGGA,165312.00,3606.2180666,N,14005.1791278,E,5,08,1.2,31.420,M,38.037,M,0.0,*79
$GPRMC,165342.00,A,3606.2180226,N,14005.1791410,E,0.00,0.00,270819,0.0,E,D*37
$GPGGA,165342.00,3606.2180226,N,14005.1791410,E,5,10,1.2,31.648,M,38.037,M,0.0,*71
$GPRMC,165412.00,A,3606.2180478,N,14005.1790905,E,0.00,0.00,270819,0.0,E,D*30
$GPGGA,165412.00,3606.2180478,N,14005.1790905,E,5,11,1.2,31.605,M,38.037,M,0.0,*7E
$GPRMC,165442.00,A,3606.2180468,N,14005.1790805,E,0.02,0.00,270819,0.0,E,D*37
$GPGGA,165442.00,3606.2180468,N,14005.1790805,E,5,11,1.2,31.690,M,38.037,M,0.0,*77
$GPRMC,165512.00,A,3606.2181258,N,14005.1793271,E,0.02,0.00,270819,0.0,E,A*38
$GPGGA,165512.00,3606.2181258,N,14005.1793271,E,1,17,1.2,32.924,M,38.037,M,0.0,*7C
$GPRMC,165542.00,A,3606.2180487,N,14005.1791373,E,0.01,0.00,270819,0.0,E,D*3F
$GPGGA,165542.00,3606.2180487,N,14005.1791373,E,5,11,1.2,31.701,M,38.037,M,0.0,*75
$GPRMC,165612.00,A,3606.2180237,N,14005.1791008,E,0.04,0.00,270819,0.0,E,D*3E
$GPGGA,165612.00,3606.2180237,N,14005.1791008,E,5,11,1.2,31.861,M,38.037,M,0.0,*78
$GPRMC,165642.00,A,3606.2181795,N,14005.1788910,E,0.07,0.00,270819,0.0,E,A*39
$GPGGA,165642.00,3606.2181795,N,14005.1788910,E,1,17,1.2,31.634,M,38.037,M,0.0,*75
$GPRMC,165712.00,A,3606.2180662,N,14005.1789766,E,0.04,0.00,270819,0.0,E,D*3D
$GPGGA,165712.00,3606.2180662,N,14005.1789766,E,5,11,1.2,31.846,M,38.037,M,0.0,*7E
$GPRMC,165742.00,A,3606.2181002,N,14005.1789872,E,0.06,0.00,270819,0.0,E,A*34
$GPGGA,165742.00,3606.2181002,N,14005.1789872,E,1,17,1.2,31.260,M,38.037,M,0.0,*7C
$GPRMC,165812.00,A,3606.2181120,N,14005.1791868,E,0.05,0.00,270819,0.0,E,D*3B
$GPGGA,165812.00,3606.2181120,N,14005.1791868,E,5,11,1.2,31.717,M,38.037,M,0.0,*72
$GPRMC,165842.00,A,3606.2181028,N,14005.1791910,E,0.04,0.00,270819,0.0,E,D*38
$GPGGA,165842.00,3606.2181028,N,14005.1791910,E,5,08,1.2,31.505,M,38.037,M,0.0,*79
$GPRMC,165912.00,A,3606.2181197,N,14005.1791260,E,0.03,0.00,270819,0.0,E,D*32
$GPGGA,165912.00,3606.2181197,N,14005.1791260,E,5,11,1.2,31.467,M,38.037,M,0.0,*79
